[{"OBJECT_NAME":"YAOGAN-16 01A","OBJECT_ID":"2012-066A","EPOCH":"2026-03-09T15:56:06.912096","MEAN_MOTION":13.45503182,"ECCENTRICITY":0.04275422,"INCLINATION":63.3548,"RA_OF_ASC_NODE":186.8334,"ARG_OF_PERICENTER":26.2866,"MEAN_ANOMALY":335.9185,"EPHEMERIS_TYPE":0,"CLASSIFICATION_TYPE":"U","NORAD_CAT_ID":39011,"ELEMENT_SET_NO":999,"REV_AT_EPOCH":65275,"BSTAR":6.3438276e-5,"MEAN_MOTION_DOT":-2.6e-7,"MEAN_MOTION_DDOT":0},{"OBJECT_NAME":"NOAA 16 DEB","OBJECT_ID":"2000-055KB","EPOCH":"2026-03-09T13:04:56.293536","MEAN_MOTION":14.37621177,"ECCENTRICITY":0.00169747,"INCLINATION":98.8128,"RA_OF_ASC_NODE":189.2891,"ARG_OF_PERICENTER":156.2792,"MEAN_ANOMALY":203.918,"EPHEMERIS_TYPE":0,"CLASSIFICATION_TYPE":"U","NORAD_CAT_ID":41398,"ELEMENT_SET_NO":999,"REV_AT_EPOCH":51993,"BSTAR":0.0022248034,"MEAN_MOTION_DOT":6.649e-5,"MEAN_MOTION_DDOT":0}]
